NOAA 1 [-]              
1 04793U 70106A   21263.84139569 -.00000034  00000-0  62266-4 0  9990
2 04793 101.5994 329.0233 0032040 126.5162 347.7460 12.54000645323790
NOAA 2 (ITOS-D) [-]     
1 06235U 72082A   21263.86689760 -.00000039  00000-0  41644-4 0  9995
2 06235 101.9156 239.8218 0003661 229.6035 196.0633 12.53139157238207
NOAA 3 [-]              
1 06920U 73086A   21263.91268736 -.00000038  00000-0  58288-4 0  9994
2 06920 102.1691 240.0350 0006836  66.7722 349.1882 12.40342213167377
NOAA 4 [-]              
1 07529U 74089A   21263.84815345 -.00000036  00000-0  64046-4 0  9997
2 07529 101.8737 238.1150 0008643 261.6797 162.5083 12.53150990143021
NOAA 5 [-]              
1 09057U 76077A   21263.84692094 -.00000032  00000-0  99918-4 0  9990
2 09057 102.0532 230.1669 0009614 279.0834 135.2497 12.37763160 40388
TIROS N [-]             
1 11060U 78096A   21264.43278450  .00000023  00000-0  32307-4 0  9990
2 11060  98.6785 319.7440 0010484 191.8123 168.2808 14.18322865433714
NOAA 6 [-]              
1 11416U 79057A   21263.87534685  .00000032  00000-0  27748-4 0  9998
2 11416  98.6686 269.2846 0009923 340.4520  19.6282 14.33654426202893
NOAA 7 [-]              
1 12553U 81059A   21264.12143946 -.00000006  00000-0  19668-4 0  9995
2 12553  99.0400 299.6427 0011940 156.8045 203.3670 14.17302056 79863
NOAA 8 [-]              
1 13923U 83022A   21263.88120330  .00000001  00000-0  17973-4 0  9994
2 13923  98.6632 250.8463 0014027 279.3634  80.5962 14.28747136  3916
NOAA 9 [-]              
1 15427U 84123A   21263.91288128 -.00000010  00000-0  17840-4 0  9996
2 15427  99.0043 227.6581 0014261 206.5448 216.0212 14.16143880898465
NOAA 10 [-]             
1 16969U 86073A   21264.20287052  .00000007  00000-0  20087-4 0  9994
2 16969  98.5416 250.7351 0012818  27.1801 343.8632 14.28145114822662
NOAA 11 [-]             
1 19531U 88089A   21263.84642463 -.00000017  00000-0  12212-4 0  9994
2 19531  98.4085 263.0369 0010191 232.5324 127.4924 14.15279431702686
NOAA 12 [-]             
1 21263U 91032A   21263.90776784 -.00000005  00000-0  15641-4 0  9998
2 21263  98.5082 266.4283 0014587  51.2464 309.0017 14.25949798578318
NOAA 13 [-]             
1 22739U 93050A   21263.90340303  .00000018  00000-0  31550-4 0  9993
2 22739  98.4763 252.6012 0010321  41.0089 319.1858 14.12794417448998
NOAA 14 [-]             
1 23455U 94089A   21263.84733818  .00000003  00000-0  23157-4 0  9990
2 23455  98.4831 299.6741 0009873  25.9775 334.1893 14.14168383378608
NOAA 15 [B]             
1 25338U 98030A   21264.42043123  .00000036  00000-0  33484-4 0  9990
2 25338  98.6765 292.0587 0010396   7.8796 352.2546 14.26058806214928
NOAA 16 [-]             
1 26536U 00055A   21264.44387209  .00000005  00000-0  25455-4 0  9994
2 26536  98.6781 327.0746 0010042 207.9863 152.0771 14.13286754 82851
NOAA 17 [-]             
1 27453U 02032A   21263.89392250  .00000023  00000-0  28403-4 0  9996
2 27453  98.6345 207.8184 0011546 341.9018  18.1749 14.25070196   466
NOAA 18 [B]             
1 28654U 05018A   21264.41987005  .00000092  00000-0  73943-4 0  9999
2 28654  98.9856 329.6269 0014339  15.7045 344.4569 14.12639592842080
NOAA 19 [+]             
1 33591U 09005A   21264.60475992  .00000024  00000-0  38089-4 0  9990
2 33591  99.1798 287.6746 0013323 219.7154 140.3042 14.12496069650497
SUOMI NPP [+]           
1 37849U 11061A   21264.60560024  .00000010  00000-0  25467-4 0  9997
2 37849  98.7414 202.0141 0001400  68.7440 104.1343 14.19543301513040
NOAA 20 [+]             
1 43013U 17073A   21264.60665935 -.00000009  00000-0  16240-4 0  9991
2 43013  98.7247 201.8048 0001427  85.4578 274.6762 14.19554161199082